{"fetched_at":"2026-03-29T16:36:15Z","count":15609,"tles":[{"name":"STARLINK-5362","line1":"1 55493U 23015AW  26087.66741354  .00002404  00000+0  99247-4 0  9990","line2":"2 55493  43.0022 232.0375 0001889 269.7647  90.2988 15.26746804173503","category":"Starlink"}]}